[{"OBJECT_NAME":"STARLINK-31235","OBJECT_ID":"2024-038R","EPOCH":"2026-03-09T22:00:24.832512","MEAN_MOTION":15.27580795,"ECCENTRICITY":0.00014854,"INCLINATION":43.0064,"RA_OF_ASC_NODE":22.2255,"ARG_OF_PERICENTER":278.0699,"MEAN_ANOMALY":81.9984,"EPHEMERIS_TYPE":0,"CLASSIFICATION_TYPE":"U","NORAD_CAT_ID":59038,"ELEMENT_SET_NO":999,"REV_AT_EPOCH":11483,"BSTAR":-9.559771e-5,"MEAN_MOTION_DOT":-2.892e-5,"MEAN_MOTION_DDOT":0},{"OBJECT_NAME":"GEOSCAN 6 (RS92S6)","OBJECT_ID":"2025-155D","EPOCH":"2026-03-09T21:52:39.201312","MEAN_MOTION":15.27985277,"ECCENTRICITY":0.00087677,"INCLINATION":97.4466,"RA_OF_ASC_NODE":37.2933,"ARG_OF_PERICENTER":153.7679,"MEAN_ANOMALY":206.4006,"EPHEMERIS_TYPE":0,"CLASSIFICATION_TYPE":"U","NORAD_CAT_ID":64879,"ELEMENT_SET_NO":999,"REV_AT_EPOCH":6559,"BSTAR":0.00053762354,"MEAN_MOTION_DOT":0.00014633,"MEAN_MOTION_DDOT":0}]
